{"type": "FeatureCollection", "features": [ {"type": "Feature", "properties": {"norad_id": 42741, "name": "EUTELSAT 172B", "group": "eutelsat", "lat": 0.00548316889037409, "lon": 107.87842350930876, "alt_km": 35787.610196980546, "timestamp": "2025-12-07T14:37:04.880823+00:00", "meta": {"OBJECT_NAME": "EUTELSAT 172B", "OBJECT_ID": "2017-029B", "EPOCH": "2025-12-06T21:19:57.628416", "MEAN_MOTION": 1.00265447, "ECCENTRICITY": 3.7e-05, "INCLINATION": 0.01, "RA_OF_ASC_NODE": 82.5178, "ARG_OF_PERICENTER": 107.1069, "MEAN_ANOMALY": 18.2914, "EPHEMERIS_TYPE": 0, "CLASSIFICATION_TYPE": "U", "NORAD_CAT_ID": 42741, "ELEMENT_SET_NO": 999, "REV_AT_EPOCH": 3180, "BSTAR": 0, "MEAN_MOTION_DOT": -1e-08, "MEAN_MOTION_DDOT": 0}, "tle": {"line1": "1 42741U 17029B   25340.88886144 -.00000001  00000+0  00000+0 0  9998", "line2": "2 42741   0.0100  82.5178 0000370 107.1069  18.2914  1.00265447 31802"}}, "geometry": {"type": "Point", "coordinates": [107.87842350930876, 0.00548316889037409]}}, {"type": "Feature", "properties": {"norad_id": 44334, "name": "EUTELSAT 7C", "group": "eutelsat", "lat": 0.049643074985134795, "lon": -57.09615749657078, "alt_km": 35779.82405202125, "timestamp": "2025-12-07T14:37:04.880851+00:00", "meta": {"OBJECT_NAME": "EUTELSAT 7C", "OBJECT_ID": "2019-034B", "EPOCH": "2025-12-06T03:25:30.364320", "MEAN_MOTION": 1.00270039, "ECCENTRICITY": 0.00034504, "INCLINATION": 0.0751, "RA_OF_ASC_NODE": 179.1623, "ARG_OF_PERICENTER": 60.529, "MEAN_ANOMALY": 253.8532, "EPHEMERIS_TYPE": 0, "CLASSIFICATION_TYPE": "U", "NORAD_CAT_ID": 44334, "ELEMENT_SET_NO": 999, "REV_AT_EPOCH": 490, "BSTAR": 0, "MEAN_MOTION_DOT": 5.6e-07, "MEAN_MOTION_DDOT": 0}, "tle": {"line1": "1 44334U 19034B   25340.14271255  .00000056  00000+0  00000+0 0  9995", "line2": "2 44334   0.0751 179.1623 0003450  60.5290 253.8532  1.00270039  4909"}}, "geometry": {"type": "Point", "coordinates": [-57.09615749657078, 0.049643074985134795]}}, {"type": "Feature", "properties": {"norad_id": 44624, "name": "EUTELSAT 5 WEST B", "group": "eutelsat", "lat": -0.06452868614979745, "lon": -69.08372070608496, "alt_km": 35773.82091580857, "timestamp": "2025-12-07T14:37:04.880865+00:00", "meta": {"OBJECT_NAME": "EUTELSAT 5 WEST B", "OBJECT_ID": "2019-067A", "EPOCH": "2025-12-06T22:06:38.876256", "MEAN_MOTION": 1.00270528, "ECCENTRICITY": 0.00035934, "INCLINATION": 0.0663, "RA_OF_ASC_NODE": 336.1801, "ARG_OF_PERICENTER": 280.5987, "MEAN_ANOMALY": 145.8386, "EPHEMERIS_TYPE": 0, "CLASSIFICATION_TYPE": "U", "NORAD_CAT_ID": 44624, "ELEMENT_SET_NO": 999, "REV_AT_EPOCH": 2250, "BSTAR": 0, "MEAN_MOTION_DOT": -3.7e-07, "MEAN_MOTION_DDOT": 0}, "tle": {"line1": "1 44624U 19067A   25340.92128329 -.00000037  00000+0  00000+0 0  9992", "line2": "2 44624   0.0663 336.1801 0003593 280.5987 145.8386  1.00270528 22507"}}, "geometry": {"type": "Point", "coordinates": [-69.08372070608496, -0.06452868614979745]}}, {"type": "Feature", "properties": {"norad_id": 45027, "name": "EUTELSAT KONNECT", "group": "eutelsat", "lat": -0.04658197117453524, "lon": -56.93419204151613, "alt_km": 35779.53698432611, "timestamp": "2025-12-07T14:37:04.880878+00:00", "meta": {"OBJECT_NAME": "EUTELSAT KONNECT", "OBJECT_ID": "2020-005B", "EPOCH": "2025-12-05T22:17:29.870880", "MEAN_MOTION": 1.00267987, "ECCENTRICITY": 0.00018557, "INCLINATION": 0.0712, "RA_OF_ASC_NODE": 98.3329, "ARG_OF_PERICENTER": 187.648, "MEAN_ANOMALY": 130.555, "EPHEMERIS_TYPE": 0, "CLASSIFICATION_TYPE": "U", "NORAD_CAT_ID": 45027, "ELEMENT_SET_NO": 999, "REV_AT_EPOCH": 2238, "BSTAR": 0, "MEAN_MOTION_DOT": 5.8e-07, "MEAN_MOTION_DDOT": 0}, "tle": {"line1": "1 45027U 20005B   25339.92881795  .00000058  00000+0  00000+0 0  9997", "line2": "2 45027   0.0712  98.3329 0001855 187.6480 130.5550  1.00267987 22381"}}, "geometry": {"type": "Point", "coordinates": [-56.93419204151613, -0.04658197117453524]}}, {"type": "Feature", "properties": {"norad_id": 49056, "name": "EUTELSAT QUANTUM", "group": "eutelsat", "lat": -0.023618521678198872, "lon": -16.36677126524019, "alt_km": 35782.30547533308, "timestamp": "2025-12-07T14:37:04.880890+00:00", "meta": {"OBJECT_NAME": "EUTELSAT QUANTUM", "OBJECT_ID": "2021-069B", "EPOCH": "2025-12-06T21:26:45.790656", "MEAN_MOTION": 1.00270716, "ECCENTRICITY": 0.00037203, "INCLINATION": 0.0281, "RA_OF_ASC_NODE": 44.9429, "ARG_OF_PERICENTER": 223.4477, "MEAN_ANOMALY": 176.9261, "EPHEMERIS_TYPE": 0, "CLASSIFICATION_TYPE": "U", "NORAD_CAT_ID": 49056, "ELEMENT_SET_NO": 999, "REV_AT_EPOCH": 1600, "BSTAR": 0, "MEAN_MOTION_DOT": 1.32e-06, "MEAN_MOTION_DDOT": 0}, "tle": {"line1": "1 49056U 21069B   25340.89358554  .00000132  00000+0  00000+0 0  9997", "line2": "2 49056   0.0281  44.9429 0003720 223.4477 176.9261  1.00270716 16003"}}, "geometry": {"type": "Point", "coordinates": [-16.36677126524019, -0.023618521678198872]}}, {"type": "Feature", "properties": {"norad_id": 53765, "name": "EUTELSAT KONNECT VHTS", "group": "eutelsat", "lat": -0.03309344978939152, "lon": -61.38416215524191, "alt_km": 35781.19377492143, "timestamp": "2025-12-07T14:37:04.880902+00:00", "meta": {"OBJECT_NAME": "EUTELSAT KONNECT VHTS", "OBJECT_ID": "2022-110A", "EPOCH": "2025-12-06T21:58:38.690976", "MEAN_MOTION": 1.0026987, "ECCENTRICITY": 0.00027281, "INCLINATION": 0.063, "RA_OF_ASC_NODE": 106.113, "ARG_OF_PERICENTER": 130.1187, "MEAN_ANOMALY": 172.0757, "EPHEMERIS_TYPE": 0, "CLASSIFICATION_TYPE": "U", "NORAD_CAT_ID": 53765, "ELEMENT_SET_NO": 999, "REV_AT_EPOCH": 489, "BSTAR": 0, "MEAN_MOTION_DOT": 2.3e-07, "MEAN_MOTION_DDOT": 0}, "tle": {"line1": "1 53765U 22110A   25340.91572559  .00000023  00000+0  00000+0 0  9992", "line2": "2 53765   0.0630 106.1130 0002728 130.1187 172.0757  1.00269870  4892"}}, "geometry": {"type": "Point", "coordinates": [-61.38416215524191, -0.03309344978939152]}}, {"type": "Feature", "properties": {"norad_id": 54048, "name": "EUTELSAT HOTBIRD 13F", "group": "eutelsat", "lat": 0.003338762738706022, "lon": -51.1109741859843, "alt_km": 35779.04919496687, "timestamp": "2025-12-07T14:37:04.880914+00:00", "meta": {"OBJECT_NAME": "EUTELSAT HOTBIRD 13F", "OBJECT_ID": "2022-134A", "EPOCH": "2025-12-06T21:50:38.745024", "MEAN_MOTION": 1.00273163, "ECCENTRICITY": 0.00021775, "INCLINATION": 0.0467, "RA_OF_ASC_NODE": 293.5462, "ARG_OF_PERICENTER": 59.1956, "MEAN_ANOMALY": 63.8704, "EPHEMERIS_TYPE": 0, "CLASSIFICATION_TYPE": "U", "NORAD_CAT_ID": 54048, "ELEMENT_SET_NO": 999, "REV_AT_EPOCH": 1144, "BSTAR": 0, "MEAN_MOTION_DOT": 9.3e-07, "MEAN_MOTION_DDOT": 0}, "tle": {"line1": "1 54048U 22134A   25340.91017066  .00000093  00000+0  00000+0 0  9997", "line2": "2 54048   0.0467 293.5462 0002177  59.1956  63.8704  1.00273163 11444"}}, "geometry": {"type": "Point", "coordinates": [-51.1109741859843, 0.003338762738706022]}}, {"type": "Feature", "properties": {"norad_id": 54225, "name": "EUTELSAT HOTBIRD 13G", "group": "eutelsat", "lat": 0.021133481306978716, "lon": -51.09977416393183, "alt_km": 35790.40063478051, "timestamp": "2025-12-07T14:37:04.880926+00:00", "meta": {"OBJECT_NAME": "EUTELSAT HOTBIRD 13G", "OBJECT_ID": "2022-146A", "EPOCH": "2025-12-05T15:28:18.292224", "MEAN_MOTION": 1.00270321, "ECCENTRICITY": 0.00019255, "INCLINATION": 0.0461, "RA_OF_ASC_NODE": 235.0424, "ARG_OF_PERICENTER": 313.1322, "MEAN_ANOMALY": 131.5912, "EPHEMERIS_TYPE": 0, "CLASSIFICATION_TYPE": "U", "NORAD_CAT_ID": 54225, "ELEMENT_SET_NO": 999, "REV_AT_EPOCH": 552, "BSTAR": 0, "MEAN_MOTION_DOT": 9.7e-07, "MEAN_MOTION_DDOT": 0}, "tle": {"line1": "1 54225U 22146A   25339.64465616  .00000097  00000+0  00000+0 0  9997", "line2": "2 54225   0.0461 235.0424 0001925 313.1322 131.5912  1.00270321  5523"}}, "geometry": {"type": "Point", "coordinates": [-51.09977416393183, 0.021133481306978716]}}, {"type": "Feature", "properties": {"norad_id": 54259, "name": "EUTELSAT 10B", "group": "eutelsat", "lat": -0.04133761423200958, "lon": -54.120477426059075, "alt_km": 35789.512864023876, "timestamp": "2025-12-07T14:37:04.880938+00:00", "meta": {"OBJECT_NAME": "EUTELSAT 10B", "OBJECT_ID": "2022-157A", "EPOCH": "2025-12-06T21:50:38.745024", "MEAN_MOTION": 1.00267719, "ECCENTRICITY": 0.00010647, "INCLINATION": 0.0633, "RA_OF_ASC_NODE": 101.1933, "ARG_OF_PERICENTER": 82.8619, "MEAN_ANOMALY": 229.5334, "EPHEMERIS_TYPE": 0, "CLASSIFICATION_TYPE": "U", "NORAD_CAT_ID": 54259, "ELEMENT_SET_NO": 999, "REV_AT_EPOCH": 1109, "BSTAR": 0, "MEAN_MOTION_DOT": 7.3e-07, "MEAN_MOTION_DDOT": 0}, "tle": {"line1": "1 54259U 22157A   25340.91017066  .00000073  00000+0  00000+0 0  9994", "line2": "2 54259   0.0633 101.1933 0001064  82.8619 229.5334  1.00267719 11094"}}, "geometry": {"type": "Point", "coordinates": [-54.120477426059075, -0.04133761423200958]}}, {"type": "Feature", "properties": {"norad_id": 59346, "name": "EUTELSAT 36D", "group": "eutelsat", "lat": -0.008831373701304258, "lon": -28.233106251381162, "alt_km": 35784.94093298814, "timestamp": "2025-12-07T14:37:04.880949+00:00", "meta": {"OBJECT_NAME": "EUTELSAT 36D", "OBJECT_ID": "2024-059A", "EPOCH": "2025-12-06T21:32:21.547104", "MEAN_MOTION": 1.0026999, "ECCENTRICITY": 4.478e-05, "INCLINATION": 0.0095, "RA_OF_ASC_NODE": 353.5839, "ARG_OF_PERICENTER": 303.7384, "MEAN_ANOMALY": 137.5713, "EPHEMERIS_TYPE": 0, "CLASSIFICATION_TYPE": "U", "NORAD_CAT_ID": 59346, "ELEMENT_SET_NO": 999, "REV_AT_EPOCH": 621, "BSTAR": 0, "MEAN_MOTION_DOT": 1.61e-06, "MEAN_MOTION_DDOT": 0}, "tle": {"line1": "1 59346U 24059A   25340.89747161  .00000161  00000+0  00000+0 0  9990", "line2": "2 59346   0.0095 353.5839 0000447 303.7384 137.5713  1.00269990  6214"}}, "geometry": {"type": "Point", "coordinates": [-28.233106251381162, -0.008831373701304258]}}]}